NORAD_CAT_ID,OBJECT_NAME,OBJECT_TYPE,EPOCH,MEAN_MOTION,ECCENTRICITY,INCLINATION,RA_OF_ASC_NODE,ARG_OF_PERICENTER,MEAN_ANOMALY,BSTAR,MEAN_MOTION_DOT,MEAN_MOTION_DDOT,TLE_LINE0,TLE_LINE1,TLE_LINE2,SEMIMAJOR_AXIS,PERIOD,APOGEE,PERIGEE,DECAYED
53804.0,STARLINK-4729,PAYLOAD,2023-01-01 22:32:31,15.08819454,0.000174,53.2163,78.6848,47.0319,313.0819,-0.00025499,-4.342e-05,0.0,0 STARLINK-4729,1 53804U 22111AH  23001.93924992 -.00004342  00000-0 -25499-3 0  9997,2 53804  53.2163  78.6848 0001740  47.0319 313.0819 15.08819454 17546,6917.943,95.439,541.012,538.604,0.0
53804.0,STARLINK-4729,PAYLOAD,2023-01-02 14:26:21,15.08840138,0.0001873,53.2164,75.7112,42.5875,317.5263,-0.00010706,-1.992e-05,0.0,0 STARLINK-4729,1 53804U 22111AH  23002.60163457 -.00001992  00000-0 -10706-3 0  9996,2 53804  53.2164  75.7112 0001873  42.5875 317.5263 15.08840138 17649,6917.88,95.438,541.0409999999998,538.4490000000002,0.0
53804.0,STARLINK-4729,PAYLOAD,2023-01-03 04:44:48,15.08840604,0.0001895,53.2166,73.0349,44.1694,315.9449,0.00011904,1.607e-05,0.0,0 STARLINK-4729,1 53804U 22111AH  23003.19778681  .00001607  00000-0  11904-3 0  9994,2 53804  53.2166  73.0349 0001895  44.1694 315.9449 15.08840604 17731,6917.879,95.438,541.054,538.433,0.0
53804.0,STARLINK-4729,PAYLOAD,2023-01-03 11:06:21,15.08838102,0.000192,53.2167,71.8456,45.1364,314.9784,9.3625e-05,1.202e-05,0.0,0 STARLINK-4729,1 53804U 22111AH  23003.46275018  .00001202  00000-0  93625-4 0  9992,2 53804  53.2167  71.8456 0001920  45.1364 314.9784 15.08838102 18586,6917.886,95.438,541.0790000000002,538.423,0.0
53804.0,STARLINK-4729,PAYLOAD,2023-01-03 15:52:31,15.08825513,0.0001896,53.2168,70.953,43.4804,316.6337,0.00013413,1.846e-05,0.0,0 STARLINK-4729,1 53804U 22111AH  23003.66147782  .00001846  00000-0  13413-3 0  9990,2 53804  53.2168  70.9530 0001896  43.4804 316.6337 15.08825513 17801,6917.925,95.438,541.101,538.4780000000002,0.0
53804.0,STARLINK-4729,PAYLOAD,2023-01-04 10:57:09,15.08837892,0.0001896999999999,53.2166,67.3843,44.019,316.0953,8.733e-05,1.102e-05,0.0,0 STARLINK-4729,1 53804U 22111AH  23004.45635556  .00001102  00000-0  87330-4 0  9994,2 53804  53.2166  67.3843 0001897  44.0190 316.0953 15.08837892 17926,6917.887,95.438,541.064,538.44,0.0
53804.0,STARLINK-4729,PAYLOAD,2023-01-04 20:29:27,15.08848278,0.0001873,53.2182,65.6009,41.688,318.4255,9.0344e-05,1.15e-05,0.0,0 STARLINK-4729,1 53804U 22111AH  23004.85378840  .00001150  00000-0  90344-4 0  9990,2 53804  53.2182  65.6009 0001873  41.6880 318.4255 15.08848278 17989,6917.855,95.437,541.016,538.424,0.0
53804.0,STARLINK-4729,PAYLOAD,2023-01-05 10:47:54,15.088592000000002,0.000187,53.2178,62.925,38.7734,321.3392,7.6738e-05,9.34e-06,0.0,0 STARLINK-4729,1 53804U 22111AH  23005.44993529  .00000934  00000-0  76738-4 0  9993,2 53804  53.2178  62.9250 0001870  38.7734 321.3392 15.08859200 18077,6917.821999999999,95.436,540.98,538.393,0.0
53804.0,STARLINK-4729,PAYLOAD,2023-01-06 12:14:06,15.08826671,0.0001758,53.2175,58.1663,31.1557,328.9539,-0.0001648,-2.909e-05,0.0,0 STARLINK-4729,1 53804U 22111AH  23006.50980093 -.00002909  00000-0 -16480-3 0  9996,2 53804  53.2175  58.1663 0001758  31.1557 328.9539 15.08826671 18234,6917.920999999999,95.438,541.002,538.57,0.0
53804.0,STARLINK-4729,PAYLOAD,2023-01-06 13:49:30,15.08826806,0.0001553,53.2177,57.8709,31.3173,328.7912,-0.00018939,-3.3e-05,0.0,0 STARLINK-4729,1 53804U 22111AH  23006.57604212 -.00003300  00000-0 -18939-3 0  9996,2 53804  53.2177  57.8709 0001553  31.3173 328.7912 15.08826806 19056,6917.920999999999,95.438,540.86,538.711,0.0
53804.0,STARLINK-4729,PAYLOAD,2023-01-07 04:07:57,15.08839398,0.0002003,53.2166,55.1934,35.9917,324.121,-0.00013856,-2.493e-05,0.0,0 STARLINK-4729,1 53804U 22111AH  23007.17219453 -.00002493  00000-0 -13856-3 0  9997,2 53804  53.2166  55.1934 0002003  35.9917 324.1210 15.08839398 18333,6917.882,95.438,541.133,538.362,0.0
53804.0,STARLINK-4729,PAYLOAD,2023-01-07 20:01:49,15.08831748,0.0002475,53.217,52.2188,48.5823,311.5381,-0.00018294,-3.198e-05,0.0,0 STARLINK-4729,1 53804U 22111AH  23007.83460320 -.00003198  00000-0 -18294-3 0  9995,2 53804  53.2170  52.2188 0002475  48.5823 311.5381 15.08831748 19247,6917.906,95.438,541.4830000000002,538.058,0.0
53804.0,STARLINK-4729,PAYLOAD,2023-01-08 02:23:22,15.08820539,0.0001759,53.2172,51.0282,27.3181,332.7903,6.6143e-06,-1.83e-06,0.0,0 STARLINK-4729,1 53804U 22111AH  23008.09956141 -.00000183  00000-0  66143-5 0  9993,2 53804  53.2172  51.0282 0001759  27.3181 332.7903 15.08820539 18472,6917.94,95.439,541.0219999999998,538.5880000000002,0.0
53804.0,STARLINK-4729,PAYLOAD,2023-01-08 08:44:53,15.0883522,0.0002202,53.2161,49.841,40.7061,319.4095,0.00011708,1.575e-05,0.0,0 STARLINK-4729,1 53804U 22111AH  23008.36451147  .00001575  00000-0  11708-3 0  9999,2 53804  53.2161  49.8410 0002202  40.7061 319.4095 15.08835220 18510,6917.895,95.438,541.283,538.237,0.0
53804.0,STARLINK-4729,PAYLOAD,2023-01-08 19:52:35,15.08828775,0.0001933,53.217,47.7587,35.3952,324.7168,0.00022787,3.339e-05,0.0,0 STARLINK-4729,1 53804U 22111AH  23008.82819413  .00003339  00000-0  22787-3 0  9993,2 53804  53.2170  47.7587 0001933  35.3952 324.7168 15.08828775 19395,6917.915,95.438,541.117,538.442,0.0
53804.0,STARLINK-4729,PAYLOAD,2023-01-09 02:14:08,15.08835807,0.0002031,53.2171,46.57,36.1057,324.0071,4.5088e-05,4.29e-06,0.0,0 STARLINK-4729,1 53804U 22111AH  23009.09315663  .00000429  00000-0  45088-4 0  9998,2 53804  53.2171  46.5700 0002031  36.1057 324.0071 15.08835807 19430,6917.893,95.438,541.163,538.3530000000002,0.0
53804.0,STARLINK-4729,PAYLOAD,2023-01-10 08:26:28,15.08839087,0.0002146,53.2176,40.92,40.8782,319.237,-3.073e-05,-7.77e-06,0.0,0 STARLINK-4729,1 53804U 22111AH  23010.35171965 -.00000777  00000-0 -30730-4 0  9990,2 53804  53.2176  40.9200 0002146  40.8782 319.2370 15.08839087 18815,6917.883000000002,95.438,541.2330000000002,538.264,0.0
53804.0,STARLINK-4729,PAYLOAD,2023-01-10 11:37:14,15.08837272,0.0002216,53.2175,40.3258,40.4495,319.6661,-4.0666e-05,-9.35e-06,0.0,0 STARLINK-4729,1 53804U 22111AH  23010.48420130 -.00000935  00000-0 -40666-4 0  9990,2 53804  53.2175  40.3258 0002216  40.4495 319.6661 15.08837272 19649,6917.889,95.438,541.2869999999998,538.221,0.0
53804.0,STARLINK-4729,PAYLOAD,2023-01-11 08:17:14,15.08843609,0.0002051,53.2172,36.4577,41.989,318.1259,6.6607e-05,7.72e-06,0.0,0 STARLINK-4729,1 53804U 22111AH  23011.34531200  .00000772  00000-0  66607-4 0  9997,2 53804  53.2172  36.4577 0002051  41.9890 318.1259 15.08843609 18960,6917.8690000000015,95.437,541.153,538.316,0.0
53804.0,STARLINK-4729,PAYLOAD,2023-01-12 17:40:21,15.08827991,0.0002182,53.2176,30.215,42.4859,317.6302,-8.170100000000001e-05,-1.588e-05,0.0,0 STARLINK-4729,1 53804U 22111AH  23012.73636562 -.00001588  00000-0 -81701-4 0  9998,2 53804  53.2176  30.2150 0002182  42.4859 317.6302 15.08827991 19172,6917.917,95.438,541.2919999999998,538.273,0.0
53804.0,STARLINK-4729,PAYLOAD,2023-01-13 01:37:18,15.08818892,0.0001949,53.2175,28.7266,41.8778,318.2363,-0.00023371,-4.004e-05,0.0,0 STARLINK-4729,1 53804U 22111AH  23013.06757900 -.00004004  00000-0 -23371-3 0  9999,2 53804  53.2175  28.7266 0001949  41.8778 318.2363 15.08818892 19224,6917.945,95.439,541.158,538.462,0.0
53804.0,STARLINK-4729,PAYLOAD,2023-01-13 07:58:50,15.08828171,0.0001929,53.2181,27.5406,50.9305,309.1859,-0.00016181,-2.862e-05,0.0,0 STARLINK-4729,1 53804U 22111AH  23013.33253312 -.00002862  00000-0 -16181-3 0  9998,2 53804  53.2181  27.5406 0001929  50.9305 309.1859 15.08828171 19263,6917.917,95.438,541.116,538.447,0.0
53804.0,STARLINK-4729,PAYLOAD,2023-01-13 17:31:09,15.08829668,0.0001935,53.2182,25.7558,51.3307,308.7858,-0.00011534,-2.123e-05,0.0,0 STARLINK-4729,1 53804U 22111AH  23013.72997313 -.00002123  00000-0 -11534-3 0  9994,2 53804  53.2182  25.7558 0001935  51.3307 308.7858 15.08829668 20130,6917.911999999999,95.438,541.116,538.438,0.0
53804.0,STARLINK-4729,PAYLOAD,2023-01-14 06:14:13,15.08846149,0.0002045999999999,53.2189,23.3749,57.4473,302.6717,9.4581e-05,1.218e-05,0.0,0 STARLINK-4729,1 53804U 22111AH  23014.25987646  .00001218  00000-0  94581-4 0  9997,2 53804  53.2189  23.3749 0002046  57.4473 302.6717 15.08846149 19406,6917.861999999999,95.437,541.1419999999999,538.311,0.0
53804.0,STARLINK-4729,PAYLOAD,2023-01-14 07:49:35,15.08853702,0.0002066999999999,53.2166,23.0757,44.2009,315.9148,0.00011543,1.55e-05,0.0,0 STARLINK-4729,1 53804U 22111AH  23014.32611045  .00001550  00000-0  11543-3 0  9997,2 53804  53.2166  23.0757 0002067  44.2009 315.9148 15.08853702 19418,6917.839,95.437,541.133,538.274,0.0
53804.0,STARLINK-4729,PAYLOAD,2023-01-14 23:43:29,15.08815057,0.0002102,53.2178,20.1042,64.9755,295.1455,4.1674e-05,3.75e-06,0.0,0 STARLINK-4729,1 53804U 22111AH  23014.98854074  .00000375  00000-0  41674-4 0  9993,2 53804  53.2178  20.1042 0002102  64.9755 295.1455 15.08815057 19515,6917.956999999999,95.439,541.276,538.367,0.0
53804.0,STARLINK-4729,PAYLOAD,2023-01-15 09:15:48,15.0882231,0.0002294,53.2169,18.3188,63.0489,297.0737,-2.9485e-06,-3.35e-06,0.0,0 STARLINK-4729,1 53804U 22111AH  23015.38598326 -.00000335  00000-0 -29485-5 0  9998,2 53804  53.2169  18.3188 0002294  63.0489 297.0737 15.08822310 20382,6917.934,95.439,541.386,538.212,0.0
53804.0,STARLINK-4729,PAYLOAD,2023-01-15 17:12:43,15.08832244,0.0001436,53.2176,16.8317,63.5225,296.5914,4.931800000000001e-05,4.97e-06,0.0,0 STARLINK-4729,1 53804U 22111AH  23015.71717389  .00000497  00000-0  49318-4 0  9990,2 53804  53.2176  16.8317 0001436  63.5225 296.5914 15.08832244 20431,6917.904,95.438,540.763,538.776,0.0
53804.0,STARLINK-4729,PAYLOAD,2023-01-16 05:55:47,15.08860639,0.0001829,53.2182,14.4527,84.809,275.3111,4.1987e-05,3.8e-06,0.0,0 STARLINK-4729,1 53804U 22111AH  23016.24707623  .00000380  00000-0  41987-4 0  9994,2 53804  53.2182  14.4527 0001829  84.8090 275.3111 15.08860639 19708,6917.816999999999,95.436,540.948,538.4169999999999,0.0
